no,display,list_no,category,name,address,lat,lng,phone1,phone2,memo1,memo2,area,hours,closing,diaper,URL
1,,2,公園,大町記念公園,穴水町字大町,37.225081,136.910313,,,遊具はブランコ、滑り台、動物の乗り物が二つ。砂遊び場。車通りが少なく割と落ち着いて遊べます。,,,,,,
2,,2,公園,由比ヶ丘公園,穴水町字川島,37.224161,136.92046,,,,,,,,,
3,,2,公園,真名井児童公園,穴水町字大町,37.226306,136.908465,,,,,,,,,
4,,,公園,あすなろ広場,日本  〒927-0027 石川県鳳珠郡穴水町川島ツ−４４−５,37.22643295070154,136.91277980804443,,,ただ広い芝生。走り回るのに最適。ここでお祭りをよくしています。,海沿いなのでトンビに注意。,,,,,
5,,2,公園,穴水交通公園,穴水町字川島,37.228149,136.91203,,,もともとが自動車学校。自転車の練習にはいいそうです。,,,,,,
6,,2,公園,川島児童公園,穴水町字川島,37.231387,136.908363,,,,,,,,,
7,,2,公園,西川島児童公園,穴水町字川島,37.233026,136.902935,,,ブランコ、滑り台、太鼓橋があります。,,,,,,
8,,2,公園,もんぜん文化村緑地広場,石川県輪島市門前町腰細9の29番地,37.24294005734064,136.70448830555722,,,,,,,,,
9,,2,公園,南農村公園,石川県輪島市門前町南カの15番地,37.254534,136.731276,,,,,,,,,
10,,2,公園,千代泣き砂ふれあい広場,石川県輪島市門前町千代29の83番地,37.27025,136.733989,,,,,,,,,
11,,2,公園,大生農村公園,石川県輪島市門前町大生ろの11番地2,37.272227,136.754672,,,,,,,,,
12,,2,公園,輪島市諸岡健康増進広場,石川県輪島市門前町道下にの49番地1,37.287091,136.738295,,,,,,,,,
13,,2,公園,下本郷農村公園,石川県輪島市門前町谷口12の28番地,37.287706,136.813262,,,,,,,,,
14,,2,公園,道下農村公園,日本  〒927-2164 石川県輪島市門前町道下７,37.28831753382303,136.74430668351306,,,,,,,,,
15,,2,公園,上本郷農村公園,石川県輪島市門前町別所2の91番地,37.289895,136.838734,,,,,,,,,
16,,2,公園,輪島市門前総合運動公園,石川県輪島市門前町清水7の1番地,37.291277,136.759793,,,,,,,,,
17,,2,公園,輪島市門前モータースポーツ公園,石川県輪島市門前町道下118の48番地1,37.300036,136.740835,,,,,,,,,
18,,2,公園,あすなろ公園,石川県輪島市門前町浦上10の20番地1,37.305604,136.798132,,,,,,,,,
19,,2,公園,輪島市浦上健康増進広場,石川県輪島市門前町浦上チの1番地1,37.306794465248885,136.79760092261506,,,,,,,,,
20,,2,公園,三井〜んなであそぼ あての森広場,石川県輪島市三井町長沢1字34番地2,37.315713,136.902193,,,,,,,,,
21,,2,公園,望楼台公園,石川県輪島市門前町皆月大峯甲1番地1,37.354584,136.753697,,,,,,,,,
22,,2,公園,輪島市農村ふれあい広場,石川県輪島市西脇町60番地,37.357283,136.908341,,,,,,,,,
23,,2,公園,輪島市緑の健康広場,石川県輪島市北谷町ニ字18番地,37.35958,136.906458,,,,,,,,,
24,,2,公園,気勝平汐見台公園,気勝平町129,37.3798583333,136.8944333333,,,,,,,,,
25,,2,公園,気勝平児童公園,石川県輪島市気勝平町24番地16,37.38225,136.898016,,,,,,,,,
26,,2,公園,宮川町子どもの広場,石川県輪島市杉平町深見田13-6,37.3873055556,136.9065805556,,,,,,,,,
27,,2,公園,二勢町子どもの広場,石川県輪島市二勢51番地,37.3877333333,136.8969972222,,,,,,,,,
28,,2,公園,輪島市漆の里広場,石川県輪島市水守町四十苅6番地,37.389718,136.891694,,,,,,,,,
29,,2,公園,南町子どもの広場,堀町33-1,37.3900805556,136.8956388889,,,,,,,,,
30,,2,公園,輪島市健康ふれあい広場,石川県輪島市河井町16部1番地1,37.390145,136.908572,,,,,,,,,
31,,2,公園,南町子どもの広場,石川県輪島市堀町3字3番地1,37.391012,136.896517,,,,,,,,,
32,,2,公園,一本松総合運動公園,石川県輪島市河井町１４,37.3916080415,136.9092689696,0768-23-1145,,,,,,,,
33,,2,公園,弥生町第２子どもの広場,石川県輪島市河井町6部35-42,37.3934666667,136.9112111111,,,,,,,,,
34,,2,公園,おがせ公園,石川県輪島市平成町52番地,37.393644,136.893715,,,,,,,,,
35,,2,公園,弥生町第１子どもの広場,石川県輪島市河井町6部87-12,37.39365977991588,136.91272414301181,,,,,,,,,
36,,2,公園,平成公園,石川県輪島市平成町10,37.3937888889,136.8927972222,,,,,,,,,
37,,2,公園,観音町子どもの広場,石川県輪島市河井町5部地内,37.394368,136.907926,,,,,,,,,
38,,2,公園,上町小公園,鳳至町上町156-22,37.3953111111,136.8985222222,,,,,,,,,
39,,2,公園,中浜町子どもの広場,河井町4部地先,37.3958805556,136.9047833333,,,,,,,,,
40,,2,公園,見付公園,珠洲市宝立町鵜島地内,37.397096202696275,137.24287390708923,,,遊具(大型遊具、ブランコ)改修予定なし, その他の公園,,,,,
41,,2,公園,輪島市鵠巣多目的広場,石川県輪島市大野町菰沢12の2番地,37.397287,136.933901,,,,,,,,,
42,,2,公園,夕陽ヶ丘子どもの広場,石川県輪島市堀町161-3,37.397684,136.890551,,,,,,,,,
43,,2,公園,鳳来山子どもの広場,鳳至町石浦町12,37.3994805556,136.8966944444,,,,,,,,,
44,,2,公園,鳳来山公園,石川県輪島市鳳至町,37.4003,136.89655,0768-22-6588,,,,,,,,
45,,2,公園,海士町子どもの広場,石川県輪島市海士町天地15,37.4016805556,136.8973722222,,,,,,,,,
46,,2,公園,港コミュニティーセンター子どもの広場,輪島崎町1部211-4,37.4031944444,136.8998194444,,,,,,,,,
47,,2,公園,南方農村公園,珠洲市上戸町南方ち字59番地,37.4187651,137.2395108,,,遊具(ブランコ、滑り台、シーソー)改修予定なし,農村公園,,,,,
48,,2,公園,柳田街区公園,珠洲市上戸町南方地内,37.419986758189616,137.24821418523788,,,遊具(小型遊具)改修予定,柳田神社前 都市公園,,,,,
49,,2,公園,町野公園,石川県輪島市町野町鈴屋イ2番地1,37.42506995112517,137.08914272520065,,,,,,,,,
50,,2,公園,上戸多目的広場,珠洲市上戸町北方地内,37.430206844897775,137.2510425746441,,,遊具：無,上戸跨線橋下 その他の公園,,,,,
51,,2,公園,名舟町子どもの広場,石川県輪島市名舟町ト1-1,37.4326027778,137.0186805556,,,旧名舟小学校,,,,,,
52,,2,公園,吾妻街区公園,珠洲市飯田町地内,37.43918394834147,137.26731553673744,,,遊具(小型遊具、ブランコ)改修済,吾妻町若山川左岸 都市公園,,,,,
53,,2,公園,さかえ街区公園,珠洲市飯田町地内,37.439794096718465,137.26613402366638,,,遊具：無,昭和橋右岸 都市公園,,,,,
54,,2,公園,城山街区公園,珠洲市若山町出田地内,37.440140164703784,137.2630226612091,,,遊具(小型遊具)改修予定なし,飯田保育所横 都市公園,,,,,
55,,2,公園,フラワーパーク鉢ケ崎,珠洲市蛸島町1番地,37.4406896,137.3249832,,,遊具：無,花の里 農村公園,,,,,
56,,2,公園,鉢ケ崎総合公園,珠洲市蛸島町地内,37.440772,137.329079,,,遊具：大人も夢中になる大型遊具があります。海岸にも近い。,駐車場：いっぱいあり,,,,,
57,,2,公園,野々江芝広場,珠洲市野々江町地内,37.44100905449935,137.2688376903534,,,遊具：無,すずなり横 その他の公園,,,,,
58,,2,公園,弁天近隣公園,石川県珠洲市蛸島町ナ−１２３,37.441686270431944,137.30859875679016,,,遊具(小型複合遊具)改修予定,旧蛸島駅向い 都市公園,,,,,
59,,2,公園,大倉公園,町野町大川七43番1,37.4426,137.0702138889,,,,,,,,,
60,,2,公園,ゆとりーとぱーく,珠洲市野々江町地内,37.4449955959807,137.26974964141846,,,遊具：無,野々江総合公園下 その他の公園,,,,,
61,,2,公園,正院街区公園,石川県珠洲市正院町川尻,37.44563018608521,137.29517430067062,,,遊具(ブランコ、滑り台)改修予定,正院小学校グラウンド横 都市公園,,,,,
62,,2,公園,野々江総合公園,珠洲市野々江町地内,37.44581758079131,137.2706937789917,,,遊具：新しい遊具があります。広いです。大きな池のまわりを走ってる人も。,,,,,,
63,,2,公園,立町白鳥公園,珠洲市正院町正院地内,37.445825863548755,137.28848524785042,,,遊具(ブランコ、滑り台)改修予定なし,旧正院駅跡 その他の公園,,,,,
64,,2,公園,小泊農村公園,珠洲市三崎町小泊14字101番地1,37.4547083,137.3592326,,,遊具：無,農村公園,,,,,
65,,2,公園,火宮農村公園,珠洲市若山町火宮い部24番地,37.4576914,137.2352597,,,遊具(ブランコ、シーソー)改修予定なし,農村公園,,,,,
66,,2,公園,本農村公園,珠洲市三崎町本へ部4番地,37.4659337,137.3243131,,,遊具：無,農村公園,,,,,
67,,2,公園,杉山緑地等広場,珠洲市三崎町杉山51字59番地,37.4689357,137.309236599999,,,遊具：無, 農村公園,,,,,
68,,2,公園,大町公園,珠洲市大谷町地内,37.498930367825906,137.17317268252373,,,遊具(ブランコ)改修予定なし,大谷保育所奥 その他の公園,,,,,
69,,2,公園,馬緤農村公園,珠洲市馬緤町は字15番地,37.5077961,137.216401099999,,,遊具：無,農村公園,,,,,
70,,2,公園,狼煙山村広場,珠洲市狼煙町イ部224番地,37.5258134,137.3253992,,,遊具：無,旧狼煙小学校 農村公園,,,,,
71,,2,公園,マリンタウン,,37.396370,136.909902,,,,2016年7月にできたばかりの大型遊具。小学生向けのようです。飛び跳ねて遊ぶポンポンドームもあります。トイレも充実。,,,,有,
72,,2,公園,柳田教養文化館前広場,珠郡能登町柳田礼8-1,37.3672462,137.09679110000002,,,,,,,,不明,
73,,2,公園,内浦総合運動公園,鳳珠郡能登町布浦拓20-4,37.3416482,137.25081039999998,,,,,,,,不明,
74,,2,公園,藤波運動公園,鳳珠郡能登町藤波23-1-137,37.294049,137.13268489999996,,,,,,,,有　多目的トイレ内,
75,,2,公園,ラポルトすず,〒927-1214　石川県珠洲市飯田町1丁目1－8,37.433491,137.261686,TEL（0768）82-8200,,外の芝生広場に音のなる遊具などがあって子どもが喜びます。,ラポルトの室内はキッズルームも有ります。カフェで軽食も食べられます。３Fまで登れば展望デッキがあります。,,,,有（多目的トイレ内）,http://www.city.suzu.ishikawa.jp/laporte-suzu/
