no,display,category,name,address,phone1,phone2,memo1,memo2,lat,lng
,1,地域型保育,内灘町　小規模保育　りす,,,,,,,
,1,病児・病後児保育,石川県立中央病院　病児保育室　ひよこ,石川県金沢市鞍月東2-1,（076）238-7868,,,,36.5949871,136.630875
,1,病児・病後児保育,金沢大学　病児保育室　たんぽぽルーム,石川県金沢市宝町13-1,（076）265-2990,,,,36.5571509,136.6736014
,1,病児・病後児保育,健生クリニック　病児保育室　ほっとルーム,石川県金沢市平和町3-5-2,（076）241-9062,,,,36.5411417,136.6609221
,1,病児・病後児保育,城北病院　病児保育室　はっぴー,石川県金沢市京町20-3,（076）253-0561,,,,36.5824225,136.6564683
,1,病児・病後児保育,聖霊乳児院　病児デイサービスセンター,石川県金沢市長町1-5-30,（076）223-2980,,,,36.5656692,136.6503414
,1,病児・病後児保育,松田小児科医院　ひまわりるーむ,石川県金沢市片町2-13-13,（076）231-1260,,,,36.560917,136.6509888
,1,病児・病後児保育,横井小児科内科医院　病児保育室　こりすの里,石川県金沢市菊川1-10-3,（076）262-8551,,,,36.5511461,136.6621134
,1,病児・病後児保育,恵寿総合病院　病児保育室　あんず,石川県七尾市富岡町94,（0767）52-3211,,,,37.0507538,136.9615791
,1,病児・病後児保育,小松市民病院　こまつ病児保育ルーム,石川県小松市向本折町ホ60,（0761）23-2626,,,,36.3986303,136.4393331
,1,病児・病後児保育,加賀市民病院　病児・病後児保育室　はとぽっぽ,石川県加賀市大聖寺八間道65,（0761）73-5830,,,,36.3079069,136.3098136
,1,病児・病後児保育,山中温泉医療センター　このゆびとーまれ山中,石川県加賀市山中温泉上野町ル15-1,（0761）78-0301,,,,36.2535568,136.369354
,1,病児・病後児保育,白山市病児保育センター,石川県白山市倉光3-75-2,（076）276-0050,,,,36.5101648,136.5649092
,1,病児・病後児保育,能美市病児保育センター,石川県能美市大浜町ノ35-1,（0761）58-2277,,,,36.454628,136.4602657
,1,病児・病後児保育,ポニーポッシュ,石川県野々市市横宮町16-9,（076）248-7780,,,,36.5339666,136.6167038
,1,病児・病後児保育,金沢医科大学病院　病児保育室　すまいる,石川県河北郡内灘町字大学1-1,（076）218-8059,,,,36.6562239,136.6468333
,1,病児・病後児保育,市立輪島病院　院内保育所　ひまわり,石川県輪島市山岸町は1-1,（0768）22-2222,,病後児保育,,37.3840938,136.9055566
,1,病児・病後児保育,輪島市子育て支援センター,石川県輪島市河井町2-287-1,（0768）22-8031,,病後児保育,,37.3941343,136.9012258
,1,病児・病後児保育,子育て支援センター菅原,石川県野々市市菅原町8-33,（076）248-4634,,病後児保育,,36.5285367,136.6163455
,1,病児・病後児保育,NPO法人子ども館,石川県能美郡川北町字土室丙114-10,（076）277-3632,,病後児保育,,36.4731042,136.5470612
,1,ファミリーサポートセンター,金沢市ファミリー・サポート・センター,金沢市教育プラザ富樫内,（076）243-3410,,,,36.5613254,136.6562051
,1,ファミリーサポートセンター,七尾市ファミリー・サポート・センター,親子ふれあいランドあい・あい・あい内,（0767）52-1476,,,,37.043102,136.9675177
,1,ファミリーサポートセンター,こまつファミリー・サポート・センター,こまつまちづくり交流センターこまつ親子つどいの広場内,（0761）23-5477,,,,36.4083514,136.445571
,1,ファミリーサポートセンター,輪島市ファミリー・サポート・センター,輪島市子育て支援センター,（0768）22-8031,,,,37.3905901,136.8991957
,1,ファミリーサポートセンター,珠洲市ファミリー・サポート・センター,珠洲市子育て支援センター,（0768）82-5479,,,,37.4363473,137.2604364
,1,ファミリーサポートセンター,加賀市ファミリー・サポート・センター,親子ほっとステーション内,（0761）78-4747,,,,36.2623288,136.3972157
,1,ファミリーサポートセンター,羽咋市ファミリー・サポート・センター,羽咋市健康福祉課,（0767）22-0066,,,,36.8935987,136.7789962
,1,ファミリーサポートセンター,かほく市ファミリー・サポート・センター,かほく市愛・遊・館内,（076）281-3582,,,,36.7690828,136.7222643
,1,ファミリーサポートセンター,白山市ファミリー・サポート・センター,白山市子育て支援センターげんきっこ,（076）274-1592,,,,36.5144271,136.5658915
,1,ファミリーサポートセンター,能美市ファミリー・サポート・センター,能美市社会福祉協議会※H27.4月末までは58-4342です,（0761）58-6230,,,,34.2113148,132.4429506
,1,ファミリーサポートセンター,野々市市ファミリー・サポート・センター,野々市市子育て支援センター菅原,（076）248-4634,,,,36.5285534,136.6161164
,1,ファミリーサポートセンター,川北町ファミリー・サポート・センター,NPO法人子ども館,（076）277-3632,,,,36.4731052,136.5470622
,1,ファミリーサポートセンター,津幡町子育てサポートセンター,津幡町社会福祉協議会親子サロン,（076）288-6276,,,,36.6686933,136.7284416
,1,ファミリーサポートセンター,内灘町ファミリー・サポート・センター,内灘町子育て支援センター,（076）238-3233,,,,36.6361572,136.6340975
,1,ファミリーサポートセンター,志賀町ファミリー・サポート・センター,志賀町住民課,（0767）32-9122,,,,37.006312,136.7780101
,1,ファミリーサポートセンター,宝達志水町ファミリー・サポート・センター,宝達志水町こども家庭室,（0767）28-5526,,,,36.8627731,136.797529
,1,ファミリーサポートセンター,中能登町ファミリー・サポート・センター,中能登町住民福祉課,（0767）72-3134,,,,36.9888836,136.9018324
,1,ファミリーサポートセンター,穴水町ファミリー・サポート・センター,穴水町児童館（穴水町さわやか交流館プルート内）,（0768）52-2333,,,,37.230995,136.9124745
,1,ファミリーサポートセンター,能登町ファミリー・サポート・センター,能登町健康福祉課,（0768）72-2512,,,,37.3532156,137.2445214
,1,ベビーシッター,アイ愛ベビーシッター,金沢市泉野町4-4-12,（076）242-8686,,,,36.5450495,136.6522364
,1,ベビーシッター,ゆいま～るベビー金沢,金沢市長町2-7-22,（076）261-5566,,,,36.5653275,136.6462723
,1,ショートステイ,こども家庭支援センター金沢,金沢市平和町3-23-5（享誠塾敷地内）,（076）243-8341,,2歳児以上,,36.5387698,136.6627276
,1,ショートステイ,ななお乳児園,七尾市津向町ハ部35-5,（0767）52-1411,,2歳児以上,,37.0564167,136.9525464
,1,ショートステイ,育松園,小松市軽海町ノ25-23（市こども家庭課）,（0761）24-8054,,2歳児以上,,36.3964188,136.5143016
,1,ショートステイ,伊奈美園ファミリーステーションいなみえん,加賀市片山津温泉井6,（0761）74-5555㈹,（0761）75-8889,2歳児以上,,36.3417761,136.3677845
,1,ショートステイ,NPO法人子ども館,能美郡川北町字土室丙114-10,（076）277-3632,,2歳児以上,,36.4731042,136.5470612
,1,ショートステイ,あすなろ学園,鳳珠郡穴水町字志ヶ浦15-1-3,（0768）52-3150,,2歳児以上,,37.2021536,136.8982162
,1,ショートステイ,聖霊乳児院,金沢市長町1-5-30,（076）223-2878,,2歳児未満,,36.5656692,136.6503414
,1,ショートステイ,ななお乳児園,七尾市津向町ハ部35-5,（0767）52-1411,,2歳児未満,,37.0564167,136.9525464
,1,ショートステイ,あすなろ学園,鳳珠郡穴水町字志ヶ浦15-1-3,（0768）52-3150,,2歳児未満,,37.2021536,136.8982162
,1,トワイライトステイ,こども家庭支援センター金沢,金沢市平和町3-23-5（享誠塾敷地内）,（076）243-8341,,,,36.5387698,136.6627276
,1,トワイライトステイ,野町夜間保育園,金沢市野町3-24-32,（076）244-6458,,午前2時まで,,36.5530207,136.6500141
,1,トワイライトステイ,ななお乳児園,七尾市津向町ハ部35-5,（0767）52-1411,,,,37.0564167,136.9525464
,1,トワイライトステイ,育松園,小松市軽海町ノ25-23（市こども家庭課,（0761）24-8054,,,,36.3964188,136.5143016
,1,トワイライトステイ,伊奈美園ファミリーステーションいなみえん,加賀市片山津温泉井6,（0761）74-5555㈹,（0761）75-8889,,,36.3417761,136.3677845
,1,トワイライトステイ,NPO法人子ども館,能美郡川北町字土室丙114-10,（076）277-3632,,,,36.4731042,136.5470612
,1,トワイライトステイ,あすなろ学園,鳳珠郡穴水町字志ヶ浦15-1-3,（0768）52-3150,,,,37.2021536,136.8982162
