no,co_id,shop_id,name,zip,address,bilding,lat,lng,phone,fax,url,servicetime,holiday,op_1,op_2,op_3,op_4,op_5,op_6,op_7,op_8,op_9,op_10,op_11,op_12,op_13
,co792115,ofid0001,ABCこども英語・英会話　松ヶ枝教室,920-0864,石川県金沢市高岡町7−23,松ヶ枝公民館,36.5699033,136.6528507,080-1523-1753,,http://abc-kodomo-eikaiwa.flips.jp/,火曜日＆金曜日　１４：４５〜１８：２０,,授乳スペース,オムツ替えスペース,,,粉ミルク用のお湯提供可,,,,子ども特典,,,,小上がり（お座敷）
,co101459,ofid0001,hair azblue,926-0852,石川県七尾市小島町大開地3-5,フリーデコート103,37.0561205, 136.9538462,0767-53-2008,,,9時30分から19時,毎週月曜日、第1・3日曜日,授乳スペース,オムツ替えスペース,,,粉ミルク用のお湯提供可,,,,,,,,
,co100163,ofid0001,Heart&Beer　日本海倶楽部,927-0605,石川県鳳珠郡能登町字立壁92番地,,37.3372296, 137.2584322,0768-72-8181,0768-72-8282,http://www.nihonkai-club.com,11:30〜22:00,水曜日（祝日は営業）,授乳スペース,オムツ替えスペース,電子レンジ,,粉ミルク用のお湯提供可,,,,,,,,
,co100791,ofid0001,MOKUMOKU工房,920-0211,石川県金沢市湊４−２３,,36.60534379,136.6171682,076-268-7455,076-267-4931,http://moku2.jp/,10:00〜16:00,不定休,授乳スペース,オムツ替えスペース,,,粉ミルク用のお湯提供可,,,,,,,,
,co111280,ofid0001,α floor,921-8807,石川県野々市市二日市町29街区20,,36.537755, 136.5986276,076-248-7555,,http://alpha-floor.com/,レッスンは月〜金　９:００〜２２:００,土・日・祝　（イベントが入り次第ＯＰＥＮします！）,授乳スペース,オムツ替えスペース,電子レンジ,おむつ又はおしりふきシートの設置(販売),粉ミルク用のお湯提供可,,,,,,,,
,co101418,ofid0001,あおば保育園,923-0861,石川県小松市沖町レ39,,36.3967409, 136.4639393,0761-21-3141,0761-24-0545,http://www.aobahoiku.jp/,7:00〜18:00（〜20：00）,不定休　日曜、祭日　12/29〜1/3　,授乳スペース,オムツ替えスペース,電子レンジ,おむつ又はおしりふきシートの設置(販売),粉ミルク用のお湯提供可,,キッズコーナー,,,,,,
,co111071,ofid0001,あかくら保育園,929-2123,石川県七尾市三引町15-22-1,,37.058662,136.879791,0767-68-3107,,,（月〜土）7:00~20:00,日曜日・祝日,授乳スペース,オムツ替えスペース,,,粉ミルク用のお湯提供可,,,,,,,,
,co110987,ofid0001,あかね保育園,924-0032,石川県白山市村井町2622-1,,36.519271,136.561445,076-276-1102,,,（月〜金）7:00~19:00、（土）7:00~18:00,,授乳スペース,オムツ替えスペース,電子レンジ,,粉ミルク用のお湯提供可,子ども用トイレ・ベビーキーパー,,,,,,,
,co111074,ofid0001,あさひ保育園,926-0826,石川県七尾市飯川町101-71-7,,37.009275,136.933845,0767-57-1418,,http://www.kosodate-web.com/asahi-ho/,（月〜土）7：00〜19：00,日曜日・祝日,授乳スペース,オムツ替えスペース,電子レンジ,,粉ミルク用のお湯提供可,,,,,,,,
,co110990,ofid0001,いしかわ保育園,924-0052,石川県白山市源兵島町288,,36.484062,136.528936,076-277-1011,,,（月〜金）7:00~19:00　（土）7:00~18:00,,授乳スペース,オムツ替えスペース,,,粉ミルク用のお湯提供可,,,,,,,,
,co101371,ofid0002,いしかわ子ども交流センター,921-8101,石川県金沢市法島町11-8,,36.5459809,136.6634746,076-243-6501,,http://www.i-oyacomi.net/i-kodomo/default.php,9:00〜17：00（16:30）,月、第3日曜日、年末年始など,授乳スペース,オムツ替えスペース,電子レンジ,おむつ又はおしりふきシートの設置(販売),粉ミルク用のお湯提供可,子ども用トイレ・ベビーキーパー,,,,,,,
,co110011,ofid0001,いしかわ子ども交流センター七尾館,926-0024,石川県七尾市古屋敷町カ10-3,,37.024004,136.973033,0767-53-3396,,http://www4.ocn.ne.jp/~nanao/,9：00〜17：00　9：00〜16：30（11月〜2月）,月・第3日曜（月曜が祝日の場合はその翌日）,授乳スペース,オムツ替えスペース,電子レンジ,,粉ミルク用のお湯提供可,子ども用トイレ・ベビーキーパー,,,,,,,
,co110013,ofid0001,いしかわ子ども交流センター小松館,923-0302,石川県小松市符津町念佛3-1,,36.3550412, 136.4205394,0761-43-1075,,http://www14.ocn.ne.jp/~codomoko/,9：00〜17：00（3月〜10月）　9：00〜16：30（11月〜2月）,月・第3日曜日・祝日の翌日（土日月を除く）,授乳スペース,オムツ替えスペース,,,,子ども用トイレ・ベビーキーパー,,,,,,,
,co110008,ofid0001,いしかわ総合スポーツセンター,920-0355,石川県金沢市稚日野町北222,,36.5793526, 136.5984092,076-268-2222,,http://www.ishikawa-spc.jp/,9：00〜22：00,年末年始,授乳スペース,オムツ替えスペース,,,,子ども用トイレ・ベビーキーパー,,,,,,,
,co034453,ofid0001,かなざわはこまち,920-0909,石川県金沢市袋町１番１号,,36.5722890,136.6567662,076-225-8600,,http://www.kanazawahakomachi.jp/,10：00〜20：00（飲食フロアーは10：00〜22：00）,不定休,授乳スペース,オムツ替えスペース,,,,子ども用トイレ・ベビーキーパー,,,,,,,
,co110019,ofid0001,かほく市立大海保育園,929-1207,石川県かほく市夏栗い43-1,,36.778492,136.748672,076-281-3682,,,（月〜土）7:00~19:00,日・祝日,授乳スペース,オムツ替えスペース,電子レンジ,おむつ又はおしりふきシートの設置(販売),粉ミルク用のお湯提供可,,,,,,,,
,co111237,ofid0001,こまつ芸術劇場うらら,923-0921,石川県小松市土居原710,,36.4032252, 136.4522038,0761-20-5500,,http://www.komatsu-urara.com/index.aspx,9：00〜18：00,水,授乳スペース,オムツ替えスペース,,,,子ども用トイレ・ベビーキーパー,,,,,,,
,co110094,ofid0001,こまつ親子つどいの広場,923-0806,石川県小松市小寺町乙80-1,,36.408002, 136.4523176,0761-23-5477,,http://www.city.komatsu.lg.jp/,10：00〜16：30（月〜土）,祝日・日・年末年始,授乳スペース,オムツ替えスペース,電子レンジ,,粉ミルク用のお湯提供可,子ども用トイレ・ベビーキーパー,,,,,,,
,co110027,ofid0001,すみれ保育園,921-8033,石川県金沢市寺町4-1-2,,36.552603,136.653185,076-241-1932,,http://www.spacelan.ne.jp/~kodom044/,（月〜土）7：00〜19：00,日曜・祭日・年末年始,授乳スペース,オムツ替えスペース,電子レンジ,,粉ミルク用のお湯提供可,,,,,,,,
,co111113,ofid0001,とりやのの保育園,929-1703,石川県鹿島郡中能登町春木11-38,,36.994808,136.901589,0767-74-0135,,,（月〜土）7：00〜20：00,,授乳スペース,オムツ替えスペース,電子レンジ,おむつ又はおしりふきシートの設置(販売),粉ミルク用のお湯提供可,子ども用トイレ・ベビーキーパー,,,,,,,
,co110003,ofid0001,ななおあいじ保育園,926-0022,石川県七尾市天神川原町ロ32-1,,37.03147754,136.972808,0767-52-3508,,http://www.kosodate-web.com/aiji/,（月〜土）7：00〜19:00,日・祝日・年末年始,授乳スペース,オムツ替えスペース,電子レンジ,おむつ又はおしりふきシートの設置(販売),粉ミルク用のお湯提供可,子ども用トイレ・ベビーキーパー,,,,,,,
,co110003,ofid0002,ななおあいじ子育て支援センター,926-0022,石川県七尾市天神川原町ロ32番地の1,,37.0314951,136.972762,0767-52-3508,0767-53-7033,http://www.kosodate-web.com/aiji/,午前7時〜午後7時,日曜日・祝日,授乳スペース,オムツ替えスペース,電子レンジ,,粉ミルク用のお湯提供可,,,,,,,,
,co110060,ofid0001,のとじま子育て支援センター,926-0212,石川県七尾市能登島佐波町15-5,のとじま保育園内,37.1116635, 136.9850295,0767-84-0123,,,,,授乳スペース,オムツ替えスペース,電子レンジ,,粉ミルク用のお湯提供可,子ども用トイレ・ベビーキーパー,,,,,,,
,co101512,ofid0001,はづ貴,920-0271,石川県河北郡内灘町鶴ヶ丘4-1-159,,36.6440973, 136.6367037,076-286-1810,,http://haduki.main.jp/,11：00〜17：00（日曜日は正午〜15：00）,毎週月曜日,授乳スペース,オムツ替えスペース,電子レンジ,,粉ミルク用のお湯提供可,,,,,,,,
,co111081,ofid0001,ひまわり保育園,926-0033,石川県七尾市千野町は7-1,,37.017156,136.956355,0767-57-2800,,http://www.with-himawari.jp/,（月〜土）7：00〜19：00,休日保育のため祝日・日曜日は不定休です。年末年始,授乳スペース,オムツ替えスペース,,,粉ミルク用のお湯提供可,,,,,,,,
,co101252,ofid0002,ほけんの窓口　金沢入江店,921-8011,石川県金沢市入江１丁目３０番,,36.5654706,136.6309820,0120-78-5066,076-259-5007,http://tislook.com/,１０：００〜１９：００,年末年始（12/29〜1/4日）,授乳スペース,オムツ替えスペース,電子レンジ,おむつ又はおしりふきシートの設置(販売),粉ミルク用のお湯提供可,,キッズコーナー,,,,,個室,
,co101252,ofid0001,ほけんの窓口　金沢店,920-0022,石川県金沢市北安江2-24-8,信開北安江ビル1階,36.5876096, 136.6481975,0120-28-5066,076-265-5099,http://tislook.com,10:00〜19:00,年末年始（12/29〜1/4日）,授乳スペース,オムツ替えスペース,電子レンジ,おむつ又はおしりふきシートの設置(販売),粉ミルク用のお湯提供可,,キッズコーナー,,,,,個室,
,co101252,ofid0003,ほけんの窓口イオンタウン野々市,921-8821,石川県野々市市白山町４番１号,,36.5270924, 136.6125236,0120-28-5166,076-259-5010,http://tislook.com/,１０：００〜２１：００,無休,授乳スペース,オムツ替えスペース,電子レンジ,おむつ又はおしりふきシートの設置(販売),粉ミルク用のお湯提供可,,キッズコーナー,,,,,,
,co101314,ofid0001,まちづくり会社　江尻屋,927-0026,石川県鳳珠郡穴水町大町ニ34,,37.2295644, 136.9066308,0768-52-0911,0768-52-0922,http://ejiriya.com,9:00〜18:00,不定休,授乳スペース,オムツ替えスペース,,,粉ミルク用のお湯提供可,,,,,,,,
,co110032,ofid0001,まどか第２保育園,920-3115,石川県金沢市弥勒町カ112,,36.614494,136.687732,076-257-1260,,,（月〜土）7：00〜19：00,日・祝日,授乳スペース,オムツ替えスペース,,,粉ミルク用のお湯提供可,,,,,,,,
,co180047,ofid0002,めいてつ・エムザ,920-0855,石川県金沢市武蔵町15-1,,36.572674, 136.6549909,076-260-1111,076-260-2191,http://www.meitetsumza.com/,10:00〜20:00（レストラン街、スターバックスは22:00まで営業）,不定休（元日・2月・8月以外は休業日なし）,授乳スペース,オムツ替えスペース,電子レンジ,おむつ又はおしりふきシートの設置(販売),粉ミルク用のお湯提供可,子ども用トイレ・ベビーキーパー,,,,,,,
,co111083,ofid0001,やまと保育園,926-0014,石川県七尾市矢田町3-43-1,,37.040755,136.976662,0767-53-2710,,http://www.kosodate-web.com/yamato/,（月〜土）7：00〜19：00,日曜日・祝日,授乳スペース,オムツ替えスペース,,,粉ミルク用のお湯提供可,,,,,,,,
,co110079,ofid0001,よしたけ保育園,923-0835,石川県小松市吉竹町ぬ47,,36.387187,136.480844,0761-24-6763,,http://yoshitake.bambino.cc/yoshitake/index.htm,（月〜土）7：00〜19：00,年末年始,授乳スペース,オムツ替えスペース,電子レンジ,おむつ又はおしりふきシートの設置(販売),粉ミルク用のお湯提供可,,,,,,,,
,co111084,ofid0001,よつば保育園,926-0002,石川県七尾市湯川町ニ部1,,37.08505,137.040275,0767-58-1912,,http://www.kosodate-web.com/yotuba/,（月〜土）7：00〜19：00,日曜日・祝日・年末年始,授乳スペース,オムツ替えスペース,電子レンジ,おむつ又はおしりふきシートの設置(販売),粉ミルク用のお湯提供可,子ども用トイレ・ベビーキーパー,,,,,,,
,co100094,ofid0001,アイ愛能力開発研究所 EDUCARE,921-8034,石川県金沢市泉野町1丁目238-1,,36.5470771, 136.6558526,076-242-8686,076-242-8660,http://kosodate-web.com/educare/index.php,9:00〜19:00,日曜、祝日,授乳スペース,オムツ替えスペース,,おむつ又はおしりふきシートの設置(販売),,子ども用トイレ・ベビーキーパー,,,,,,,
,co101271,ofid0001,アカチャンホンポ金沢店,920-0333,石川県金沢市無量寺4丁目91-1,アピタタウン金沢ベイＤ棟,36.607449, 136.6084458,076-225-2555,076-225-2558,http://www.akachan.jp/,10:00〜21:00,,授乳スペース,オムツ替えスペース,,おむつ又はおしりふきシートの設置(販売),粉ミルク用のお湯提供可,子ども用トイレ・ベビーキーパー,,,,,,,
,co100704,ofid0001,アビオシティ加賀,922-0423,石川県加賀市作見町ル25-1,,36.31974, 136.3523258,0761-72-5811,0761-72-5812,,9：30〜20：00,年2回不定休,授乳スペース,オムツ替えスペース,,おむつ又はおしりふきシートの設置(販売),粉ミルク用のお湯提供可,子ども用トイレ・ベビーキーパー,,,,,,,
,co100669,ofid0001,アピタ　松任店,924-0817,石川県白山市幸明町280番地,,36.5158448,136.5769516,076-274-6611,076-274-6619,http://www.uny.co.jp/,9:00〜21:00,年2回　決算日に休業,授乳スペース,オムツ替えスペース,,おむつ又はおしりふきシートの設置(販売),,子ども用トイレ・ベビーキーパー,,,,,,,
,co100669,ofid0002,アピタ　金沢店,921-8022,石川県金沢市中村町10番20,,36.5595475, 136.6426504,076-226-3111,076-226-3119,http://www.uny.co.jp/,10:00〜21:00,年2回　決算日に休業,授乳スペース,オムツ替えスペース,,おむつ又はおしりふきシートの設置(販売),粉ミルク用のお湯提供可,,,,,,,,
,co110001,ofid0001,アピタタウン金沢ベイ,920-0333,石川県金沢市無量寺第2土地区画整理事業地内21,,36.6072323, 136.6082374, 076-225-2525,,http://www.uny.co.jp/store/pickup-shop/kanazawabay/index.htm,10：00〜21：00,なし,授乳スペース,オムツ替えスペース,,おむつ又はおしりふきシートの設置(販売),粉ミルク用のお湯提供可,,,,,,,,
,co111229,ofid0001,アリス保育園,921-8807,石川県野々市市二日市町65街区2,,36.537562,136.595786,076-294-2525,,,（月〜金）7:00~19:00　（土）7:00~18:00,日・祝日・年末年始,授乳スペース,オムツ替えスペース,電子レンジ,おむつ又はおしりふきシートの設置(販売),粉ミルク用のお湯提供可,,,,,,,,
,co100188,ofid0008,イオンかほく店,929-1126,石川県かほく市内日角タ25番,,36.7092541,136.7006627,076-289-1000,076-289-1321,http://www.aeon.jp/sc/kahoku/,9：00〜22：00,無し,授乳スペース,オムツ替えスペース,,おむつ又はおしりふきシートの設置(販売),粉ミルク用のお湯提供可,子ども用トイレ・ベビーキーパー,,,,,,,
,co100188,ofid0003,イオンもりの里店,920-1167,石川県金沢市もりの里1丁目70番地,,36.5514627,136.6899771,076-234-8888,076-234-8831,http://www.aeon.jp/aeon/morinosato/,9:00〜23:00（食品のみ24時間営業）,無し,授乳スペース,オムツ替えスペース,,おむつ又はおしりふきシートの設置(販売),粉ミルク用のお湯提供可,,,,,,,,
,co100188,ofid0007,イオン加賀の里店,922-0013,石川県加賀市上河崎町47-1,,36.3065720,136.3469441,0761-72-8800,0761-72-8888,http://www.aeon.jp/aeon/kaganosato/,9:00〜22:00（食品のみ24時間営業）,無し,授乳スペース,オムツ替えスペース,,おむつ又はおしりふきシートの設置(販売),粉ミルク用のお湯提供可,子ども用トイレ・ベビーキーパー,,,,,,,
,co100188,ofid0006,イオン小松店,923-0036,石川県小松市平面町ア69,,36.4192223,136.4725604,0761-23-6000,0761-23-6006,http://www.aeon.jp/aeon/komatsu/,9:00〜23:00（食品のみ24時間営業）,無し,授乳スペース,オムツ替えスペース,,おむつ又はおしりふきシートの設置(販売),粉ミルク用のお湯提供可,子ども用トイレ・ベビーキーパー,,,,,,,
,co100188,ofid0002,イオン御経塚店,921-8801,石川県野々市市御経塚2-91,,36.5484779,136.5986886,076-269-0130,076-269-0131,http://www.aeon.jp/aeon/okyozuka/,食品売場9:00〜23:00　その他の売場9:00〜22:00,無休（都合により臨時休業させていただく場合があります）,授乳スペース,オムツ替えスペース,,おむつ又はおしりふきシートの設置(販売),粉ミルク用のお湯提供可,子ども用トイレ・ベビーキーパー,,,,,,,
,co100188,ofid0005,イオン松任店,924-0841,石川県白山市平松町102-1,,36.5080381,136.5661342,076-274-8600,076-274-8611,http://www.aeon.jp/aeon/matto/,9:00〜22:00（食品のみ9:00〜23:00迄営業）,無し,授乳スペース,オムツ替えスペース,,おむつ又はおしりふきシートの設置(販売),粉ミルク用のお湯提供可,子ども用トイレ・ベビーキーパー,,,,,,,
,co100188,ofid0004,イオン野々市南店,921-8835,石川県野々市市上林4-747,,36.5021407,136.6055021,076-246-8121,076-246-8238,http://www.aeon.jp/aeon/nonoichiminami/,9:00〜22:00（食品のみ24時間営業）,無休（都合により臨時休業させていただく場合があります）　,授乳スペース,オムツ替えスペース,,,,子ども用トイレ・ベビーキーパー,,,,,,,
,co100188,ofid0001,イオン金沢店,920-3126,石川県金沢市福久2丁目58番地,,36.6172997,136.6813858,076-258-7588,076-258-7500,http://www.aeon.jp/aeon/kanazawa/,9：00〜22：00（但し専門店と一部売場は異なります）,無休（都合により臨時休業させていただく場合があります）,授乳スペース,オムツ替えスペース,,おむつ又はおしりふきシートの設置(販売),粉ミルク用のお湯提供可,子ども用トイレ・ベビーキーパー,,,,,,,
,co437205,ofid0001,インド＆パキスタン料理　AZAAN（アザーン）,921-8005,石川県金沢市間明町1-237,,36.5664656,136.6163593,076-220-6838,076-220-6838,http://azaan.jp/,11：30〜15：00（LO.14：30）、17：00〜22：00（LO.21：30）,不定期,授乳スペース,オムツ替えスペース,電子レンジ,,粉ミルク用のお湯提供可,,キッズコーナー,,子ども特典,子どもメニュー,禁煙席,個室,小上がり（お座敷）
,co101413,ofid0001,エンジェル保育園,921-8815,石川県野々市市本町6-22-1,,36.533433,136.607587,076-248-2888,,http://www.angelhoikuen.com/,（月〜金）7:15~19:00　（土）7:15~18:00,日・祝日,授乳スペース,オムツ替えスペース,電子レンジ,おむつ又はおしりふきシートの設置(販売),粉ミルク用のお湯提供可,子ども用トイレ・ベビーキーパー,,,,,,,
,co100983,ofid0002,カラオケメイト　松任店,924-0032,石川県白山市村井町１７７５,,36.5090056, 136.5620613,076-275-8400,,,11:00〜26:00,毎週月曜日（祝前日・祝日は除く）,授乳スペース,オムツ替えスペース,電子レンジ,,粉ミルク用のお湯提供可,,,,,,,,
,co337770,ofid0001,キタセ,923-0925,石川県小松市八日市町68,,36.4025168,136.4496653,0761-24-0851,0761-24-0885,,10時〜19時,水曜日（1月2日〜5月5日迄無休）,授乳スペース,オムツ替えスペース,,,粉ミルク用のお湯提供可,,キッズコーナー,ベビーカーの貸し出し,,,,,
,co110840,ofid0004,キッズランドいなみえん　なかよし広場,922-0412,石川県加賀市片山津温泉井6,いなみえんグリーンハウス内,36.3420177, 136.3677456,0761-74-5555,,http://www.inamien.jp/,10：00〜16：00,土・日・祝日,授乳スペース,オムツ替えスペース,,おむつ又はおしりふきシートの設置(販売),粉ミルク用のお湯提供可,,,,,,,,
,co683669,ofid0001,サイエンスヒルズこまつ　ひととものづくり科学館,923-8610,石川県小松市こまつの杜2番地,,36.4018069,136.4558103,0761-22-8610,0761-23-8686,http://science-hills-komatsu.jp/,9：30〜18：00（有料観覧受付は17：00まで）,月曜日（月曜日が祝日の場合は翌日。夏休み、ＧＷは開館）、年末年始（12月29日〜１月３日）,授乳スペース,オムツ替えスペース,,,,子ども用トイレ・ベビーキーパー,,,,,,,
,co101468,ofid0001,セレクトショップ　epis（レピ）,921-8064,石川県金沢市八日市５丁目５６２番地,,36.5504952, 136.6115369,076-240-7020,076-240-7020,http://epis.jp,10時00分〜20時00分,年中無休（年末年始を除く）,授乳スペース,オムツ替えスペース,,,,子ども用トイレ・ベビーキーパー,,,,,,,
,co110041,ofid0001,チャイルドケアハウス小丸山,926-0855,石川県七尾市小丸山台1‐82_83_84,（小丸山保育園併設）,37.0456651, 136.9571323,0767-53-3710,,http://www.ans.co.jp/n/komaruyama/index_3.htm,10：00〜15：00,土・日・祝日,授乳スペース,オムツ替えスペース,電子レンジ,,粉ミルク用のお湯提供可,,,,,,,,
,co100742,ofid0001,テルメ金沢,920-0364,石川県金沢市松島町17番地,,36.5696918,136.6012899,076-269-2211,076-269-2311,http://www.terume.net,24時間,年中無休,授乳スペース,オムツ替えスペース,,,粉ミルク用のお湯提供可,子ども用トイレ・ベビーキーパー,キッズコーナー,,,子どもメニュー,禁煙席,個室,小上がり（お座敷）
,co101377,ofid0001,ハートハウス,921-8064,石川県金沢市八日市5丁目493-1,,36.551534,136.609669,076-240-3838,076-240-8188,http://www.hearthouse.jp/,10:00〜17:00,水曜日,授乳スペース,オムツ替えスペース,電子レンジ,,,,キッズコーナー,,,,,,
,co110002,ofid0001,パトリア,926-0811,石川県七尾市御祓町1,,37.0434657, 136.9633847,0767-54-0770,,http://www.patria770.com/,9：00〜20：00,年2回（2・8月第3水曜日）,授乳スペース,オムツ替えスペース,電子レンジ,おむつ又はおしりふきシートの設置(販売),粉ミルク用のお湯提供可,子ども用トイレ・ベビーキーパー,,,,,,,
,co110840,ofid0003,ファミリーステーション　いなみえん,922-0412,石川県加賀市片山津温泉井６番地,,36.3420177, 136.3677456,0761-75-8889,,http://www.inamien.jp/,9：00〜16：00,土・日曜（祭日）,授乳スペース,オムツ替えスペース,電子レンジ,,粉ミルク用のお湯提供可,,キッズコーナー,,,,,,
,co101288,ofid0005,マックスバリュ　東金沢駅前店,920-0005,石川県金沢市高柳町13字1-1,,36.5918131, 136.6698364,076-251-3611,076-251-3618,,24時間営業,年中無休,授乳スペース,オムツ替えスペース,電子レンジ,おむつ又はおしりふきシートの設置(販売),,,,,,,,,
,co110026,ofid0001,ミドリ第二保育園,920-0373,石川県金沢市みどり3-23-2,,36.566891,136.584113,076-249-5524,,http://www.midori-kidsweb.com/newpage3.html,（月〜土）7：00〜19：00,日・祝日,授乳スペース,オムツ替えスペース,,おむつ又はおしりふきシートの設置(販売),粉ミルク用のお湯提供可,,,,,,,,
,co101506,ofid0001,リーファ　ナカガワ,924-0804,石川県白山市徳丸町512-1,,36.5180404,136.5761982,076-276-2888,076-276-6103,http://www.li-fa.co.jp/,10:00〜20:00,不定休,授乳スペース,オムツ替えスペース,,,粉ミルク用のお湯提供可,子ども用トイレ・ベビーキーパー,,,,,,,
,co111077,ofid0001,七尾みなと保育園,926-0852,石川県七尾市矢田町1-8,,37.044954,136.980138,0767-53-3750,,http://www.nanaominato.jp,（月〜土）7：00〜翌日1：00,日曜日・祝日,授乳スペース,オムツ替えスペース,電子レンジ,,粉ミルク用のお湯提供可,,,,,,,,
,co110514,ofid0001,七尾サンライフ児童センター,926-0021,石川県七尾市本府中町ヲ38,,37.033297,136.969634,0767-53-5486,,http://www.nanao.syakyo.jp/,9：00〜12：00　13：00〜17：00,月曜・第３日曜・祝日・年末年始（12/29〜1/3）,授乳スペース,オムツ替えスペース,,,粉ミルク用のお湯提供可,,,,,,,,
,co110516,ofid0001,七尾市中島児童館,929-2223,石川県七尾市中島町上町ヲ-85,,37.126379,136.842505,0767-66-0123,,http://www.nanaosyakyo.jp/,月〜金　14：00〜17：00　土曜日　9：00〜12：00,日曜・祝日・第２、４、５土曜・年末年始（12/28〜1/3),授乳スペース,オムツ替えスペース,,,粉ミルク用のお湯提供可,,,,,,,,
,co110512,ofid0001,七尾市北大呑児童館,926-0366,石川県七尾市庵町ウ23ウ23の2,,37.040911,137.046246,0767-59-1250,,http://www.nanaosyakyo.jp/,火曜日〜日曜日13：00〜17：00　土曜日9：00〜17：00,月曜日・第１、３日曜日・祝日・年末年始（12/28〜1/3）,授乳スペース,オムツ替えスペース,,,粉ミルク用のお湯提供可,,,,,,,,
,co110152,ofid0001,七尾市役所 健康福祉部 健康推進課（七尾サンライフプラザ保健,926-0021,石川県七尾市本府中町ヲ38,,37.0337145,136.9700320,0767-53-3623,,http://www.city.nanao.lg.jp/,8：30〜17：15,土曜日・日曜日・祝日,授乳スペース,オムツ替えスペース,電子レンジ,,粉ミルク用のお湯提供可,,,,,,,,
,co111281,ofid0001,七尾市役所　健康福祉部　子育て支援課（七尾駅前ミナ．クル２階,926-0046,石川県七尾市神明町１番地,ミナ．クルビル２階,37.0433547,136.9646338,0767-53-8445,,http://www.city.nanao.lg.jp/,8：30〜17：15,土曜日・日曜日・祝日,授乳スペース,オムツ替えスペース,,,粉ミルク用のお湯提供可,子ども用トイレ・ベビーキーパー,,,,,,,
,co110513,ofid0001,七尾市御祓児童館,926-0806,石川県七尾市一本杉町124,,37.048275,136.96136,0767-53-1397,,http://www.nanaosyakyo.jp/,9：00〜17：00,月曜・第３日曜日・祝日・年末年始（12/28〜1/3),授乳スペース,オムツ替えスペース,,,粉ミルク用のお湯提供可,,,,,,,,
,co110515,ofid0001,七尾市田鶴浜児童館,929-2121,石川県七尾市田鶴浜ニ部117,,37.060798,136.893612,0767-68-3650,,http://www.nanaosyakyo.jp/,月〜金　14：00〜17：00　土曜日　9：00〜12：00,日曜・祝日・第２、４、５土曜・年末年始（12/28〜1/3),授乳スペース,オムツ替えスペース,,,粉ミルク用のお湯提供可,,,,,,,,
,co100414,ofid0002,三草二木　西圓寺,923-0033,石川県小松市野田町丁68番地,,36.4316801,136.4792327,0761-48-7773,,http://www.bussien.com/saienji/,日〜木　11:00〜20:00、金・土　11：00〜21：00,祝日、1月1日〜3日,授乳スペース,オムツ替えスペース,電子レンジ,,粉ミルク用のお湯提供可,,,,,,,,
,co110059,ofid0001,中島子育て支援センター,929-2222,石川県七尾市中島町中島乙39-1,中島保育園内,37.1199503, 136.8502748,0767-66-1210,,,,,授乳スペース,オムツ替えスペース,,,粉ミルク用のお湯提供可,,,,,,,,
,co110155,ofid0001,健康増進センター,927-1214,石川県珠洲市飯田町5-9,,37.4444797, 137.2654552,0768-82-7742,,,,,授乳スペース,オムツ替えスペース,,,粉ミルク用のお湯提供可,,,,,,,,
,co111080,ofid0001,光の子保育園,926-0016,石川県七尾市大和町チ18-1,,37.043905,136.974422,0767-53-0094,,http://w2232.nsk.ne.jp/hikarinoko/,（月〜土）7：00〜19：00,日曜日、祝日,授乳スペース,オムツ替えスペース,,,粉ミルク用のお湯提供可,,,,,,,,
,co110028,ofid0001,内灘はまなす保育園,920-0268,石川県河北郡内灘町ハマナス2-18,,36.655182,136.643462,076-286-0133,,,（月〜土）7:00~22:00,,授乳スペース,オムツ替えスペース,電子レンジ,,粉ミルク用のお湯提供可,子ども用トイレ・ベビーキーパー,,,,,,,
,co110197,ofid0001,内灘町 子育て支援センター／カンガルーム内灘,920-0272,石川県河北郡内灘町字向陽台1丁目97,,36.6362259, 136.6341069,076-238-3233,,,9：00〜17：00,第2・4・5日曜日・祝日,授乳スペース,オムツ替えスペース,電子レンジ,,粉ミルク用のお湯提供可,子ども用トイレ・ベビーキーパー,,,,,,,
,co293783,ofid0002,内灘町保健センター,920-0261,石川県河北郡内灘町字鶴ヶ丘２丁目１６１番地1,,36.6434559, 136.6429339,076-286-6101,076-286-6103,,8：30-17：00,日曜、土曜、祝日、12月２９〜1月３日,授乳スペース,オムツ替えスペース,電子レンジ,,粉ミルク用のお湯提供可,子ども用トイレ・ベビーキーパー,,,,,,,
,co293783,ofid0001,内灘町役場,920-0292,石川県河北郡内灘町字大学１丁目２番地１,,36.6535297,136.64512519,076-286-1111,076-286-0617,http://www.town.uchinada.1g.jp/webapps/www/index.jsp,8:00-17:15,日曜日、土曜日、祝日、12月29日〜1月3日,授乳スペース,オムツ替えスペース,電子レンジ,,粉ミルク用のお湯提供可,子ども用トイレ・ベビーキーパー,,,,,,,
,co111231,ofid0001,加賀市役所,922-0811,石川県加賀市大聖寺南町二41,,36.3026173,136.3147199,0761-72-1111,,http://www.city.kaga.ishikawa.jp/,8：30〜17：15,土・日・祝日,授乳スペース,オムツ替えスペース,,,,子ども用トイレ・ベビーキーパー,,,,,,,
,co110312,ofid0001,加賀市民病院,922-0057,石川県加賀市大聖寺八間道65,,36.3079069, 136.3098135,0761-72-2100,,,,,授乳スペース,オムツ替えスペース,,,,子ども用トイレ・ベビーキーパー,,,,,,,
,co111233,ofid0001,加賀市立中央図書館,922-0861,石川県加賀市大聖寺地方町1字10-4,,36.3025436, 136.3107830,0761-73-0888,,http://www.kagalib.jp/toshow/index.html,9：00〜19：00（18：00）,日・祝日,授乳スペース,オムツ替えスペース,,,,子ども用トイレ・ベビーキーパー,,,,,,,
,co111240,ofid0001,加賀市立山中図書館,922-0112,石川県加賀市山中温泉西桂木町ト19-1,,36.2517044, 136.3747869,0761-78-4441,,http://www.kagalib.jp/toshow/index.html,9：00〜19：00（土・日は18：00まで）,月、祝日、年末年始、整理休館日,授乳スペース,オムツ替えスペース,,,,子ども用トイレ・ベビーキーパー,,,,,,,
,co111062,ofid0001,千鳥台幼稚舎,920-0277,石川県河北郡内灘町千鳥台4-143,,36.639312,136.626136,076-255-0031,,,（月〜土）7:00~20:00,,授乳スペース,オムツ替えスペース,電子レンジ,おむつ又はおしりふきシートの設置(販売),粉ミルク用のお湯提供可,,,,,,,,
,co110076,ofid0001,南陽幼保園,923-0328,石川県小松市南陽町1-121,,36.330453,136.440965,0761-65-2288,,http://www.nanyou-h.net,（月〜土）7：00〜19：00,土・日・祝日,授乳スペース,オムツ替えスペース,電子レンジ,おむつ又はおしりふきシートの設置(販売),粉ミルク用のお湯提供可,,,,,,,,
,co111060,ofid0001,向陽台保育園,920-0272,石川県河北郡内灘町向陽台1-145-1,,36.637891,136.634042,076-237-2677,,,（月〜土）7:00~19:00,,授乳スペース,オムツ替えスペース,電子レンジ,おむつ又はおしりふきシートの設置(販売),粉ミルク用のお湯提供可,,,,,,,,
,co111085,ofid0001,和倉保育園,926-0175,石川県七尾市和倉町3-24,,37.08613,136.917701,0767-62-3360,,http://wakura-hoikuen.wakuraonsen.org/,（月〜土）7：00〜22：00,日曜日、祝日、年末年始,授乳スペース,オムツ替えスペース,,,粉ミルク用のお湯提供可,,,,,,,,
,co856930,ofid0001,和倉温泉観光案内所（ＪＲ和倉温泉駅内）,926-0171,石川県七尾市石崎町タ部55,,37.0749556,136.9256345,0767-62-1055,0767-62-1050,,10：30〜16：30,元旦,授乳スペース,オムツ替えスペース,,,粉ミルク用のお湯提供可,,,,,,,,
,co100774,ofid0001,大和　香林坊店,920-0961,石川県金沢市香林坊1-1-1,,36.5633359,136.6541339,076-220-1111,076-220-1150,http://www.daiwa-dp.co.jp/,10:00〜19:30（レストラン街「金沢ふーどがーでん」は22時まで営業）,不定休,授乳スペース,オムツ替えスペース,,おむつ又はおしりふきシートの設置(販売),,,,ベビーカーの貸し出し,,,禁煙席,,
,co850764,ofid0001,大和保育園,923-0952,石川県小松市大和町102番地,,36.3968696,136.4503001,0761-22-0339,,http://www.daiwazenrinkan.com,,日曜、祝日,授乳スペース,オムツ替えスペース,,,,子ども用トイレ・ベビーキーパー,,,,,,,
,co100067,ofid0001,子どもの本専門店　チルクリ,921-8034,石川県金沢市泉野町5丁目3-3,,36.5443247, 136.6538335,076-247-4473,076-247-4473,,10:00〜18:00,日曜、祝日,授乳スペース,オムツ替えスペース,,おむつ又はおしりふきシートの設置(販売),粉ミルク用のお湯提供可,子ども用トイレ・ベビーキーパー,,,,,,,
,co110115,ofid0001,子育てひろばLets郷,924-0801,石川県白山市田中町　182,郷保育園内,36.5314808, 136.5879202,076-276-8521,,,,,授乳スペース,オムツ替えスペース,,,粉ミルク用のお湯提供可,,,,,,,,
,co110120,ofid0001,子育てひろばさくらんぼ,920-2163,石川県白山市柴木町甲6-1,,36.492069, 136.6026303,076-255-7607,,,9:00〜17:00,土・日・祝日,授乳スペース,オムツ替えスペース,電子レンジ,おむつ又はおしりふきシートの設置(販売),粉ミルク用のお湯提供可,子ども用トイレ・ベビーキーパー,,,,,,,
,co110109,ofid0001,子育てサロン,925-0052,石川県羽咋市中央町フ168,あだちストアジョイフル店横,36.8964955, 136.7750853,0767-22-1518,,,9：00〜16：45,日・年末年始（12/28〜1/3）,授乳スペース,オムツ替えスペース,電子レンジ,,粉ミルク用のお湯提供可,,,,,,,,
,co110126,ofid0001,子育て支援センターおしの,921-8802,石川県野々市市押野3-115,押野保育園２階「なかよしルーム」,36.5419073, 136.6180895,076-248-0290,,http://kosodate.town.nonoichi.ishikawa.jp/oshino_ho/shiencenteroshino/shiencente,8：30〜17：15,日・祝日・年末年始,授乳スペース,オムツ替えスペース,電子レンジ,おむつ又はおしりふきシートの設置(販売),粉ミルク用のお湯提供可,,,,,,,,
,co110127,ofid0001,子育て支援センターはくさん,921-8821,石川県野々市市白山町4-2,,36.5274368, 136.6126931,076-248-4337,,,9：00〜17：00,日,授乳スペース,オムツ替えスペース,電子レンジ,おむつ又はおしりふきシートの設置(販売),粉ミルク用のお湯提供可,子ども用トイレ・ベビーキーパー,,,,,,,
,co110130,ofid0001,子育て支援センターふじひら,921-8833,石川県野々市市藤平142,,36.513894, 136.6045910,076-246-1181,,,8：30〜17：00,土・日,授乳スペース,オムツ替えスペース,,,,子ども用トイレ・ベビーキーパー,,,,,,,
,co110131,ofid0001,子育て支援センター和光,921-8812,石川県野々市市扇が丘18-13,,36.5270286, 136.6228866,076-272-8405,,,,,授乳スペース,オムツ替えスペース,電子レンジ,,粉ミルク用のお湯提供可,,,,,,,,
,co110128,ofid0001,子育て支援センター菅原,921-8814,石川県野々市市菅原8-33,,36.5279923, 136.6158983,076-248-4634,,http://kosodate.town.nonoichi.ishikawa.jp/sugahara_ho/index.html,,,授乳スペース,オムツ替えスペース,電子レンジ,おむつ又はおしりふきシートの設置(販売),粉ミルク用のお湯提供可,子ども用トイレ・ベビーキーパー,,,,,,,
,co101420,ofid0001,安宅保育園,923-0003,石川県小松市安宅町ヨ132,,36.420018,136.424634,0761-21-0287,0761-21-6061,http://ics.incl.ne.jp/inclcont/kids/en/top.html?top_code=00001,9:00〜16:00,日・祝日,授乳スペース,オムツ替えスペース,電子レンジ,,粉ミルク用のお湯提供可,,,ベビーカーの貸し出し,,,,,
,co110045,ofid0001,宝達志水町子育て支援センターあいあい,929-1412,石川県羽咋郡宝達志水町荻島に11−1,,36.8572957, 136.7778648,0767-29-3525,,,9：00〜16：00,土・日・年末年始・お盆,授乳スペース,オムツ替えスペース,,,粉ミルク用のお湯提供可,子ども用トイレ・ベビーキーパー,,,,,,,
,co110044,ofid0001,宝達志水町子育て支援センターどんぐり,929-1344,石川県羽咋郡宝達志水町今浜えびすが丘31,,36.8253022, 136.7578379,0767−28−3456,,,9：00〜16：00,土・日・年末年始・お盆,授乳スペース,オムツ替えスペース,,,粉ミルク用のお湯提供可,子ども用トイレ・ベビーキーパー,,,,,,,
,co110123,ofid0001,寺井子育て支援センター,923-1101,石川県能美市粟生町ﾛ10-2,（旧粟生保育園）,36.4517128,136.5062856,0761-58-8100,,,9：00〜17：00,土・日・祝日,授乳スペース,オムツ替えスペース,電子レンジ,おむつ又はおしりふきシートの設置(販売),粉ミルク用のお湯提供可,,,,,,,,
,co111075,ofid0001,小丸山保育園,926-0852,石川県七尾市小島町イ58-1,,37.045044,136.95754,0767-53-3700,,http://www.ans.co.jp/n/komaruyama/,（月〜土）7：00〜翌日1：00,日曜日・祝日・年末年始,授乳スペース,オムツ替えスペース,電子レンジ,,粉ミルク用のお湯提供可,,,,,,,,
,co110007,ofid0001,小松市立空とこども絵本館,923-0904,石川県小松市小馬出町10-3,,36.407699, 136.4479096,0761-23-0033,,http://www.city.komatsu.ishikawa.jp/soratokodomoehonkan/index.html,9：00〜17：00,月・祝日の翌日・年末年始・第2・4木曜,授乳スペース,オムツ替えスペース,電子レンジ,,粉ミルク用のお湯提供可,子ども用トイレ・ベビーキーパー,,,,,,,
,co110223,ofid0001,山中温泉医療センター／児童デイサービスこのゆびとーまれ山中,922-0193,石川県加賀市山中温泉上野町ル15-1,,36.2535568, 136.3693539,0761-78-0301,,,,,授乳スペース,オムツ替えスペース,,,,子ども用トイレ・ベビーキーパー,,,,,,,
,co111270,ofid0001,山代ファミリーサポートセンター,922-0242,石川県加賀市山代温泉18-52,,36.2892578, 136.3610119,0761-76-1085,,http://www.geocities.jp/arahan1236/,月〜金　10:00〜18:00,日・祝日,授乳スペース,オムツ替えスペース,電子レンジ,,粉ミルク用のお湯提供可,子ども用トイレ・ベビーキーパー,,,,,,,
,co111265,ofid0001,山島保育園,924-0843,石川県白山市安吉町116-1,,36.4831533,136.566645,076-276-1106,,http://www.asagaotv.ne.jp/~yamajima,（月〜金）7：00〜19：00　（土）7：00〜18：00,日・祝日,授乳スペース,オムツ替えスペース,電子レンジ,,粉ミルク用のお湯提供可,,,,,,,,
,co111234,ofid0001,川北町保健センター,923-1267,石川県能美郡川北町壱ツ屋196,,36.4673548, 136.5435534,076-277-8388,,,8：30〜17：15,土・日・祝日,授乳スペース,オムツ替えスペース,,,,子ども用トイレ・ベビーキーパー,,,,,,,
,co111034,ofid0001,市立しらゆり保育園,929-1177,石川県かほく市白尾ワ1-1,,36.719742,136.690784,076-283-1860,,,（月〜土）7:00~19:00,,授乳スペース,オムツ替えスペース,電子レンジ,,粉ミルク用のお湯提供可,子ども用トイレ・ベビーキーパー,,,,,,,
,co111073,ofid0001,市立のとじま保育園,926-0212,石川県七尾市能登島佐波町15-5,,37.120366,136.998771,0767-84-0123,,,（月〜土）7:00~19:00,日曜日、祝日、年末年始,授乳スペース,オムツ替えスペース,電子レンジ,,粉ミルク用のお湯提供可,子ども用トイレ・ベビーキーパー,,,,,,,
,co110016,ofid0001,市立はまなす保育園,929-1171,石川県かほく市木津ヘ49-1,,36.745968,136.705284,076-285-2630,,,（月〜土）7：00〜19：00,日・祝祭日・年末年始,授乳スペース,オムツ替えスペース,電子レンジ,おむつ又はおしりふきシートの設置(販売),粉ミルク用のお湯提供可,,,,,,,,
,co110018,ofid0001,市立みずべ保育園,929-1127,石川県かほく市大崎東58-1,,36.706997,136.693954,076-283-1933,,,（月〜土）7:00~19:00,日・祭日・年末年始,授乳スペース,オムツ替えスペース,電子レンジ,おむつ又はおしりふきシートの設置(販売),粉ミルク用のお湯提供可,,,,,,,,
,co111072,ofid0001,市立中島保育園,929-2222,石川県七尾市中島町中島乙39-1,,37.116563,136.852296,0767-66-1231,,,（月〜土）7:00~19:00,日曜日、祝日・年末年始,授乳スペース,オムツ替えスペース,,,粉ミルク用のお湯提供可,,,,,,,,
,co111232,ofid0001,市立動橋保育園,922-0331,石川県加賀市動橋町へ6-1,,36.329544,136.390672,0761-74-1567,,,（月〜金）7：30〜19：00、（土）7:30~12:30,,授乳スペース,オムツ替えスペース,,,,子ども用トイレ・ベビーキーパー,,,,,,,
,co111066,ofid0001,市立大呑保育園,926-0366,石川県七尾市庵町ヨ31,,37.026281,137.048483,0767-59-1114,,,（月〜土）7:00~19:00,日曜日、祝日、年末年始,授乳スペース,オムツ替えスペース,,,粉ミルク用のお湯提供可,,,,,,,,
,co110015,ofid0001,市立学園台保育園,929-1210,石川県かほく市学園台5-18,,36.780658,136.729746,076-281-0515,,,（月〜土）7:00~19:00,,授乳スペース,オムツ替えスペース,電子レンジ,おむつ又はおしりふきシートの設置(販売),粉ミルク用のお湯提供可,,,,,,,,
,co111070,ofid0001,市立田鶴浜保育園,929-2121,石川県七尾市田鶴浜ぬ57,,37.064538,136.887054,0767-68-3117,,,（月〜土）7:00~19:00,日曜日・祝日・年末年始,授乳スペース,オムツ替えスペース,電子レンジ,,粉ミルク用のお湯提供可,,,,,,,,
,co111065,ofid0001,市立石崎保育園,926-0171,石川県七尾市石崎町ソ21-1,,37.076225,136.929964,0767-62-2404,,,（月〜土）7:00~19:00,日曜日、祝日、年末年始,授乳スペース,オムツ替えスペース,,,粉ミルク用のお湯提供可,,,,,,,,
,co111067,ofid0001,市立袖ヶ江保育園,926-0051,石川県七尾市郡町弐113-1,,37.046312,136.973065,0767-52-1420,,,（月〜土）7:00~19:00,日曜日、祝日、年末年始,授乳スペース,オムツ替えスペース,電子レンジ,,粉ミルク用のお湯提供可,,,,,,,,
,co111068,ofid0001,市立高階保育園,926-0831,石川県七尾市池崎町い23,,37.032298,136.907575,0767-57-2523,,,（月〜土）7:00~19:00,日曜日・祝日・年末年始,授乳スペース,オムツ替えスペース,,,粉ミルク用のお湯提供可,,,,,,,,
,co100307,ofid0001,平和堂　アル・プラザ金沢,920-0014,石川県金沢市諸江町３０番１号,,36.5914572, 136.6443771,076-260-1331,076-260-0890,http://www.heiwado.jp,10:00〜21:00,2月・8月で各1日,授乳スペース,オムツ替えスペース,,おむつ又はおしりふきシートの設置(販売),粉ミルク用のお湯提供可,,,,,,,,
,co110024,ofid0001,志賀町役場,925-0154,石川県羽咋郡志賀町末吉千古1-1,,37.006187, 136.7780100,0767-32-9122,,http://www.town.shika.lg.jp/shikasypher/www/normal_top.jsp,8：30〜17：15,土・日・祝日・年末年始,授乳スペース,オムツ替えスペース,,,粉ミルク用のお湯提供可,,,,,,,,
,co110025,ofid0001,志賀町役場　富来支所,925-0447,石川県羽咋郡志賀町富来領家町甲10,,37.1442599, 136.7254324,0767-42-1111,,http://www.town.shika.lg.jp/shikasypher/www/normal_top.jsp,8：30〜17：15,土・日・祝日・年末年始,授乳スペース,オムツ替えスペース,,,粉ミルク用のお湯提供可,,,,,,,,
,co110014,ofid0001,愛・遊・館内子育て支援センター,929-1215,石川県かほく市高松ク20-2,,36.7690977, 136.7222845,076-281-3582,076-281-3583,,9：00〜16：00,日・祭日・年末年始,授乳スペース,オムツ替えスペース,電子レンジ,,粉ミルク用のお湯提供可,,,,,,,,
,co101275,ofid0001,日本自動車博物館,923-0345,石川県小松市二ツ梨町一貫山40番地,,36.3343649, 136.4304802,0761-43-4343,0761-43-4444,http://www.mmj-car.com,9:00〜17:00（入館は16:30まで） 12月~3月は1時間短縮,毎週水曜日（祝祭日開館）　年末12/26~12/31,授乳スペース,オムツ替えスペース,電子レンジ,,,,キッズコーナー,ベビーカーの貸し出し,,,禁煙席,,
,co110807,ofid0001,木場保育園,923-0311,石川県小松市木場町ハ46,,36.358503,136.448524,0761-43-0098,,http://yoshitake.bambino.cc/kiba/index.htm,（月〜土）7:00~19:00,,授乳スペース,オムツ替えスペース,電子レンジ,おむつ又はおしりふきシートの設置(販売),粉ミルク用のお湯提供可,,,,,,,,
,co110043,ofid0001,木場潟公園センター,923-0844,石川県小松市三谷町ら之部58,,36.3719693, 136.4588294,0761-43-3106,,http://www.pref.ishikawa.lg.jp/kouen/map/park/kiba/index.html,8：30〜17：00,年末年始,授乳スペース,オムツ替えスペース,電子レンジ,,粉ミルク用のお湯提供可,子ども用トイレ・ベビーキーパー,,,,,,,
,co111241,ofid0001,本宮保育園,926-0814,石川県七尾市本府中町リ23-1,,37.037391,136.963946,0767-53-5220,,http://www.hongu.ed.jp,（月〜土）7：00〜20：00,日,授乳スペース,オムツ替えスペース,電子レンジ,,粉ミルク用のお湯提供可,,,,,,,,
,co111086,ofid0001,東みなと保育園,926-0012,石川県七尾市万行町77-36-2,,37.041274,136.992186,0767-52-3115,,http://www.nanaominato.jp/hminato/,（月〜土）7：00〜19：00,日曜日・祝日,授乳スペース,オムツ替えスペース,,,粉ミルク用のお湯提供可,,,,,,,,
,co110009,ofid0001,津幡町社会福祉協議会　親子サロン,929-0325,石川県河北郡津幡町加賀爪ニ3,福祉センター２Ｆ,36.6704681, 136.7331633,076-288-6276,,http://oyakosaron.boo.jp/,9：00〜16：00,火・土・日・祝日,授乳スペース,オムツ替えスペース,電子レンジ,おむつ又はおしりふきシートの設置(販売),粉ミルク用のお湯提供可,子ども用トイレ・ベビーキーパー,,,,,,,
,co111079,ofid0001,浜岡保育園,926-0173,石川県七尾市石崎町ヨ37,,37.077267,136.925423,0767-62-3233,,http://www.hamaoka.cc/,（月〜土）7：00〜20：00,年始,授乳スペース,オムツ替えスペース,電子レンジ,,粉ミルク用のお湯提供可,,,,,,,,
,co111268,ofid0001,生命の森　ひろ助産院,924-0832,石川県白山市藤木町２５５−２,,36.4821673, 136.5827352,076-274-8715,,http://www7b.biglobe.ne.jp/~hiro_jyosannin/,10:00〜16:00,土日祝日,授乳スペース,オムツ替えスペース,,,粉ミルク用のお湯提供可,,,,,,,,
,co110058,ofid0001,田鶴浜子育て支援センター,929-2121,石川県七尾市田鶴浜町ぬ57,田鶴浜保育園内,37.0644579,136.8870869,0767-68-6366,,,,,授乳スペース,オムツ替えスペース,電子レンジ,,粉ミルク用のお湯提供可,,,,,,,,
,co111114,ofid0001,町立あおば保育園,929-1811,石川県鹿島郡中能登町二宮力部58,,36.98206,136.926638,0767-76-8181,,,（月〜土）7：00〜19：00,,授乳スペース,オムツ替えスペース,電子レンジ,おむつ又はおしりふきシートの設置(販売),粉ミルク用のお湯提供可,,,,,,,,
,co110021,ofid0001,白山ろくテーマパーク　吉岡園地　公園センター,920-2306,石川県白山市河内町吉岡西89,,36.3775899, 136.6144673,076-272-3637,,http://www.asagaotv.ne.jp/~h-tp/,8：30〜17：00,12/29〜1/3,授乳スペース,オムツ替えスペース,,おむつ又はおしりふきシートの設置(販売),粉ミルク用のお湯提供可,子ども用トイレ・ベビーキーパー,,,,,,,
,co110022,ofid0001,白山ろくテーマパーク　吉野園地,920-2321,石川県白山市吉野ト92-5,,36.357193, 136.6210975,076-255-5353,,http://www.asagaotv.ne.jp/~h-tp/,10：00〜17：00,12/1〜3/31　冬季閉鎖,授乳スペース,オムツ替えスペース,電子レンジ,,粉ミルク用のお湯提供可,子ども用トイレ・ベビーキーパー,,,,,,,
,co110029,ofid0001,白帆台保育園,920-0269,石川県河北郡内灘町白帆台2-130,,36.672756,136.657648,076-286-5401,,http://www.shirahodai.com/,（月〜土）7:00~20:00,日・祝・年末年始,授乳スペース,オムツ替えスペース,電子レンジ,,粉ミルク用のお湯提供可,,,,,,,,
,co110049,ofid0001,真行寺むつみ苑保育所,920-0935,石川県金沢市石引2-4-23,,36.555092,136.668473,076-221-5206,,http://www.kosodate-web.com/mutsumien/,（月〜土）7：00〜20：00,日・祝日,授乳スペース,オムツ替えスペース,,おむつ又はおしりふきシートの設置(販売),粉ミルク用のお湯提供可,,,,,,,,
,co100861,ofid0001,石川県七尾美術館,926-0855,石川県七尾市小丸山台一丁目１番地,,37.0448923, 136.9537040,0767-53-1500,0767-53-6262,http://nanao-art-museum.jp,9:00〜17:00(入館は16：30まで）,月曜日（祝日の場合はその翌日）、祝日の翌日（日曜日の場合は開館）、年末年始（１２月２９日〜１月３日）、展示替え期間、臨時休館あり　※展覧会によっては会期中無休,授乳スペース,オムツ替えスペース,,,粉ミルク用のお湯提供可,,,ベビーカーの貸し出し,子ども特典,,禁煙席,,
,co139063,ofid0001,石川県地場産業振興センター,920-8203,石川県金沢市鞍月2丁目1番地,,36.5943749,136.6214421,076-268-2010,076-268-2859,http://www.isico.or.jp/jibasan/index,8：30〜17：30,8月14〜16日、12月29日〜翌年1月3日,授乳スペース,オムツ替えスペース,,,,子ども用トイレ・ベビーキーパー,,,,,,,
,co111236,ofid0001,石川県女性センター,920-0861,石川県金沢市三社町1-44,,36.5705768, 136.6453777,076-234-1112,,,9：00〜21：00,年末年始,授乳スペース,オムツ替えスペース,,,粉ミルク用のお湯提供可,子ども用トイレ・ベビーキーパー,,,,,,,
,co110033,ofid0001,石川県庁,920-8580,石川県金沢市鞍月1-1,,36.5947288, 136.6255504,076-225-1263,,http://www.pref.ishikawa.lg.jp/index.html,7：30（10：00）〜20：00（19：00）,年末年始,授乳スペース,オムツ替えスペース,,,,子ども用トイレ・ベビーキーパー,,,,,,,
,co110031,ofid0001,石川県政しいのき迎賓館,920-0962,石川県金沢市広坂２−１−１,,36.5624113, 136.6578938,076-261-1111,,http://www.shiinoki-geihinkan.jp/,9：00〜22：00,年末年始,授乳スペース,オムツ替えスペース,,,,子ども用トイレ・ベビーキーパー,,,,,,,
,co110030,ofid0001,石川県消費生活支援センター,920-8204,石川県金沢市戸水2-30,,36.607366, 136.6201753,076-267-6157,,http://www.pref.ishikawa.lg.jp/shohicenter/index.html,9：00〜17：00,日・祝日,授乳スペース,オムツ替えスペース,電子レンジ,,粉ミルク用のお湯提供可,,,,,,,,
,co110387,ofid0001,石川県立中央病院／病院内保育所,920-8201,石川県金沢市鞍月東東2-1,,36.5949705, 136.6308722,076-237-8211,,http://www.pref.ishikawa.jp/ipch/,8:30〜17:15,土日祝日・年末年始（12/29〜1/3）,授乳スペース,オムツ替えスペース,,おむつ又はおしりふきシートの設置(販売),粉ミルク用のお湯提供可,子ども用トイレ・ベビーキーパー,,,,,,,
,co110012,ofid0001,石川県立図書館,920-0964,石川県金沢市本多町3-2-15,,36.5554761, 136.6642547,076-223-9565,,http://www.library.pref.ishikawa.lg.jp,9：00〜17：00,毎月末日（土日は開館）国民の祝日（5月3.4.5日は開館）、,授乳スペース,オムツ替えスペース,,,,子ども用トイレ・ベビーキーパー,,,,,,,
,co111235,ofid0001,石川県職業能力開発プラザ,920-0862,石川県金沢市芳斉1-15-15,,36.5706213, 136.6462553,076-261-1400,,,8：30〜17：00,土・日・祝日,授乳スペース,オムツ替えスペース,,,粉ミルク用のお湯提供可,,,,,,,,
,co110046,ofid0001,石川県能登北部保健福祉センター,928-0079,石川県輪島市鳳至町畠田102-4,,37.392076, 136.8965430,0768-22-2011,,http://www.pref.ishikawa.lg.jp/nanaohc/,8：30〜17：15,土・日・祝日・年末年始,授乳スペース,オムツ替えスペース,電子レンジ,,,,,,,,,,
,co110005,ofid0001,石川県運転免許センター,920-0209,石川県金沢市東蚊爪町2-1,,36.6386096, 136.6589553,076-238-5901,,,8:30〜17:15（8:00〜16:45）,土・祝日・年末年始,授乳スペース,オムツ替えスペース,,,粉ミルク用のお湯提供可,,,,,,,,
,co110062,ofid0001,社会福祉法人和倉温泉福祉会　ゆうかり子育て支援センター,926-0175,石川県七尾市和倉町3-24,和倉保育園内,37.08817, 136.9149483,0767-62-3360,,,,,授乳スペース,オムツ替えスペース,,おむつ又はおしりふきシートの設置(販売),粉ミルク用のお湯提供可,,,,,,,,
,co101180,ofid0001,積水ハウス株式会社　北陸支店,920-8203,石川県金沢市鞍月4-125,,36.5963591, 136.6252726,076-266-3400,076-266-2335,http://www.sekisuihouse.co.jp/,9:00〜18:00,火・水曜日、祝日,授乳スペース,オムツ替えスペース,,,粉ミルク用のお湯提供可,,,,,,,,
,co100997,ofid0001,笠原健招堂薬局,925-0447,石川県羽咋郡志賀町富来領家町甲63番地４,,37.1419158, 136.7259936,0767-42-2606,0767-42-2605,http://www.e-kenshoudou.com/,9:00〜19:30,毎週日曜日・祝祭日,授乳スペース,オムツ替えスペース,電子レンジ,おむつ又はおしりふきシートの設置(販売),粉ミルク用のお湯提供可,,,,,,,,
,co110124,ofid0001,緑が丘子育て支援センター,923-1226,石川県能美市緑が丘3-43,,36.4426855, 136.5421318,0761-51-4082,,,9：00〜17：00,土・日・祝日,授乳スペース,オムツ替えスペース,電子レンジ,おむつ又はおしりふきシートの設置(販売),粉ミルク用のお湯提供可,,,,,,,,
,co100624,ofid0001,美容室　美の館／キッズルーム,923-0918,石川県小松市京町50-1,,36.406191, 136.4483235,0761-21-1179,0761-21-1179,,9:00〜18:00,年中無休（但し3日間　正月2.3日休）,授乳スペース,オムツ替えスペース,電子レンジ,おむつ又はおしりふきシートの設置(販売),粉ミルク用のお湯提供可,子ども用トイレ・ベビーキーパー,キッズコーナー,,,,,,
,co110147,ofid0001,能登町こどもみらいセンター,927-0433,石川県鳳珠郡能登町宇出津タ字46番1地,,37.308786,137.148717,0768-62-1503,,,10：00〜17：00,月曜・第3日曜,授乳スペース,オムツ替えスペース,電子レンジ,,粉ミルク用のお湯提供可,,,,,,,,
,co110023,ofid0001,能登空港ターミナルビル,929-2372,石川県輪島市三井町洲衛10-11-1,,37.2950414, 136.9571283,0768-26-2300,,http://www.noto-airport.jp/notosypher/www/index.jsp,8：30〜5：30,なし,授乳スペース,オムツ替えスペース,,,粉ミルク用のお湯提供可,,,,,,,,
,co110042,ofid0001,能美市寺井中央児童館,923-1121,石川県能美市寺井町中84,,36.439962,136.497531,0761−58−5425,,,9：30〜18：00,月曜AM・木曜AM・日曜・祝日,授乳スペース,オムツ替えスペース,電子レンジ,,粉ミルク用のお湯提供可,子ども用トイレ・ベビーキーパー,,,,,,,
,co110081,ofid0001,舟見ヶ丘保幼園,923-0053,石川県小松市河田町甲52-1,,36.410965,136.507624,0761-47-2732,,http://www.funamigaoka.or.jp/,（月〜土）7：00〜19：00,土・日,授乳スペース,オムツ替えスペース,電子レンジ,,粉ミルク用のお湯提供可,子ども用トイレ・ベビーキーパー,,,,,,,
,co111078,ofid0001,西湊保育園,926-0852,石川県七尾市小島町ヌ49-3,,37.053155,136.954989,0767-52-3139,,http://www.kosodate-web.com/nishiminato/,（月〜土）7：00〜24：00,日曜日、祝日,授乳スペース,オムツ替えスペース,電子レンジ,おむつ又はおしりふきシートの設置(販売),粉ミルク用のお湯提供可,,,,,,,,
,co110057,ofid0001,親子ふれあいランドあい・あい・あい,926-0046,石川県七尾市神明町１番地,ミナ.クルビル内,37.0415965, 136.9656678,0767-52-1476,,,,,授乳スペース,オムツ替えスペース,電子レンジ,,粉ミルク用のお湯提供可,子ども用トイレ・ベビーキーパー,,,,,,,
,co110119,ofid0001,親子よろこびの広場あさがお,924-0871,石川県白山市西新町170番地１,サンライフ松任1F,36.5246729,136.5631929,076-275-8677,,http://oyako-asagao.com/,10：00〜17：00,日・祝・年末年始・夏季（お盆休み）,授乳スペース,オムツ替えスペース,電子レンジ,おむつ又はおしりふきシートの設置(販売),粉ミルク用のお湯提供可,,,,,,,,
,co110530,ofid0001,輪島市もんぜん児童館,927-2147,石川県輪島市門前町鬼屋4-20,,37.288661, 136.7656266,0768-42-3166,,,,日曜・祝日,授乳スペース,オムツ替えスペース,電子レンジ,,粉ミルク用のお湯提供可,,,,,,,,
,co110095,ofid0001,輪島市子育て支援センター,928-0001,石川県輪島市河井町2部287-1,,37.3940479, 136.9117863,0768-22-8031,,,8：00〜17：00,月・祝日,授乳スペース,オムツ替えスペース,電子レンジ,,粉ミルク用のお湯提供可,子ども用トイレ・ベビーキーパー,,,,,,,
,co715415,ofid0001,道の駅織姫の里なかのと,929-1721,石川県鹿島郡中能登町井田ぬ部10番地1,,36.9699441,136.9047607,0767-74-2806,0767-74-1300,http://orihime-nakanoto.jp/,9：00〜18：00,1〜3月の水曜日,授乳スペース,オムツ替えスペース,,,粉ミルク用のお湯提供可,子ども用トイレ・ベビーキーパー,,,,,,,
,co110165,ofid0001,野々市市保健センター,921-8825,石川県野々市市三納3-128,,36.5237345, 136.6108404,076-248-3511,,,8時30分から17時15分,土曜日・日曜日・祝日・年末年始,授乳スペース,オムツ替えスペース,,,粉ミルク用のお湯提供可,子ども用トイレ・ベビーキーパー,,,,,,,
,co111230,ofid0001,野々市市庁舎,921-8825,石川県野々市市三納1-1,,36.5194656,136.609685,076-227-6032,,http://www.town.nonoichi.lg.jp/,8：30〜17：45,土曜日・日曜日・祝日・年末年始,授乳スペース,オムツ替えスペース,,,,子ども用トイレ・ベビーキーパー,,,,,,,
,co101435,ofid0002,金沢ハウジングセンター　南住宅公園,921-8802,石川県野々市市押野1-30,,36.542174, 136.6118761,076-294-3678,076-294-2561,http://khc-park.com/south/index.html,10：00〜18：00（12月〜2月　10:00〜17:30),毎週水曜日,授乳スペース,オムツ替えスペース,電子レンジ,,粉ミルク用のお湯提供可,子ども用トイレ・ベビーキーパー,キッズコーナー,,,,,,
,co101435,ofid0001,金沢ハウジングセンター　県庁東,920-8222,石川県金沢市副都心北部大友土地区画整理事業施工地区24街区1-1,,36.6028821,136.6303753,076-237-3655,076-237-3645,http://www.khc-park.com,10：00〜18：00（12月〜2月　10:00〜17:30）,毎週水曜日,授乳スペース,オムツ替えスペース,電子レンジ,,粉ミルク用のお湯提供可,子ども用トイレ・ベビーキーパー,キッズコーナー,,,,,,
,co101157,ofid0001,金沢フォーラス,920-0849,石川県金沢市堀川新町3番1号,,36.5792282,136.6496904,076-265-8111,076-265-8112,http://www.forus.co.jp/kanazawa/,10:00〜21:00　6FダイニングリゾートKUUGO11:00〜23:00（一部ショップは異なる,年中無休,授乳スペース,オムツ替えスペース,電子レンジ,おむつ又はおしりふきシートの設置(販売),粉ミルク用のお湯提供可,子ども用トイレ・ベビーキーパー,,,,,,,
,co111269,ofid0001,金沢市キゴ山天体観測センター,920-1141,石川県金沢市平等本町カ13-1,,36.517922, 136.7429474,076-229-1141,,http://www4.city.kanazawa.lg.jp/39059/index.html,8：30〜17：15（宿泊団体がある場合は、この限りではありません）,月曜日（月曜が休日の場合は翌火曜）、年末年始（12/29〜1,授乳スペース,オムツ替えスペース,電子レンジ,,粉ミルク用のお湯提供可,,,,,,,,
,co110150,ofid0001,金沢市元町福祉保健センター,920-0842,石川県金沢市元町1丁目12-12,,36.5816533, 136.666962,076-251-2258,,,,,授乳スペース,オムツ替えスペース,,,粉ミルク用のお湯提供可,,,,,,,,
,co110034,ofid0001,金沢市役所本庁舎,920-0962,石川県金沢市広坂1−1−1,,36.5610505, 136.6566328,076-220-2091,,http://www4.city.kanazawa.lg.jp/,9：00〜17：45,土・日・祝日・年末年始,授乳スペース,オムツ替えスペース,,,,子ども用トイレ・ベビーキーパー,,,,,,,
,co110040,ofid0001,金沢市教育プラザ富樫,921-8171,石川県金沢市富樫3−10−1,,36.5381112, 136.6422291,076-243-1054,,http://www.togashi.ed.jp/,9：00〜17：00,年末年始,授乳スペース,オムツ替えスペース,電子レンジ,おむつ又はおしりふきシートの設置(販売),粉ミルク用のお湯提供可,子ども用トイレ・ベビーキーパー,,,,,,,
,co110149,ofid0001,金沢市泉野福祉健康センター,921-8034,石川県金沢市泉野町6丁目15-5,,36.5435468, 136.6494838,076-242-1131,,,10：00〜16：00,土・日・祝日,授乳スペース,オムツ替えスペース,,,粉ミルク用のお湯提供可,子ども用トイレ・ベビーキーパー,,,,,,,
,co110036,ofid0001,金沢市立城北児童会館,920-0811,石川県金沢市小坂町西8−11,,36.58974,136.671917,076-251-0444,,http://www.kanazawa-kosodate.net/spot/jido_johoku.htm,9：30〜16：30,月曜・祝日（こどもの日を除く）,授乳スペース,オムツ替えスペース,,,,子ども用トイレ・ベビーキーパー,,,,,,,
,co110035,ofid0001,金沢市立泉野図書館,921-8034,石川県金沢市泉野町4−22−22,,36.544169, 136.6492395,076-280-2345,,http://www.lib.kanazawa.ishikawa.jp/,10：00〜19：00（17：00）,火,授乳スペース,オムツ替えスペース,,,,子ども用トイレ・ベビーキーパー,,,,,,,
,co110039,ofid0001,金沢市立玉川こども図書館,920-0863,石川県金沢市玉川町2−2,,36.5699854, 136.6507524,076-262-0415,076-262-0424,http://www.lib.kanazawa.ishikawa.jp/kodomo/,10：00〜17：00,月,授乳スペース,オムツ替えスペース,,,,子ども用トイレ・ベビーキーパー,,,,,,,
,co110038,ofid0001,金沢市近江町交流プラザ・ちびっこ広場,920-0907,石川県金沢市青草町88,近江町交流プラザ３階,36.5714242, 136.6559353,076-260-6724,,http://www4.city.kanazawa.lg.jp/22045/oumicho.html,10：00〜18：00,水・年末年始,授乳スペース,オムツ替えスペース,電子レンジ,,粉ミルク用のお湯提供可,子ども用トイレ・ベビーキーパー,,,,,,,
,co110151,ofid0001,金沢市駅西福祉健康センター,920-0024,石川県金沢市西念3丁目4-25,,36.5898934, 136.6353805,076-234-5103,,,8：30〜17：00,土・日・祝日,授乳スペース,オムツ替えスペース,,,,子ども用トイレ・ベビーキーパー,,,,,,,
,co110053,ofid0001,金沢駅こどもらんど,920-0858,石川県金沢市木ノ新保町1-1,ＪＲ金沢駅あじわい館内,36.5784523,136.6481298,076-260-4150,,http://www.kanazawa-kosodate.net/spot/hiroba.htm,10：00〜16：00,月・年末年始,授乳スペース,オムツ替えスペース,電子レンジ,,,,,,,,,,
,co424872,ofid0001,雑貨＆カフェ　momo,920-0997,石川県金沢市竪町38番地,松浦ビル1F,36.5594645,136.6544136,076-261-0660,076-261-0660,http://momo66.com,11:00〜18：00,水曜日、その他,授乳スペース,オムツ替えスペース,,おむつ又はおしりふきシートの設置(販売),粉ミルク用のお湯提供可,,,,,,,,
,co100609,ofid0001,（有）くろかわ,927-0553,石川県鳳珠郡能登町小木13-27,,37.2989381, 137.2304255,0768-74-0356,0768-74-1359,,8:30〜19:00,毎週日曜日とお正月,授乳スペース,オムツ替えスペース,電子レンジ,,粉ミルク用のお湯提供可,,,,,,,,
,co101391,ofid0001,Ｂ−ｅｃｏｄ,924-0882,石川県白山市八ツ矢町579-3,,36.5259839, 136.5719880,076-274-2528,,,10:00〜19:00,毎週月曜、第１火曜、第３日曜,授乳スペース,オムツ替えスペース,電子レンジ,,粉ミルク用のお湯提供可,,,,,,,,
,co110010,ofid0001,ＫＯＨＲＩＮＢＯ　109,920-0961,石川県金沢市香林坊2-1-1,,36.5623277,136.6532186,076-220-5001,,http://www.kohrinbo109.com/,10：00〜21：00,1月1日、2・8月第1水曜日,授乳スペース,オムツ替えスペース,,,,子ども用トイレ・ベビーキーパー,,,,,,,
